[{"OBJECT_NAME":"STARLINK-30201","OBJECT_ID":"2023-096M","EPOCH":"2026-03-09T22:00:01.999584","MEAN_MOTION":15.15735537,"ECCENTRICITY":0.00012732,"INCLINATION":43.0006,"RA_OF_ASC_NODE":221.3396,"ARG_OF_PERICENTER":317.2195,"MEAN_ANOMALY":216.3759,"EPHEMERIS_TYPE":0,"CLASSIFICATION_TYPE":"U","NORAD_CAT_ID":57301,"ELEMENT_SET_NO":999,"REV_AT_EPOCH":572,"BSTAR":0.0062653027,"MEAN_MOTION_DOT":0.00123499,"MEAN_MOTION_DDOT":0},{"OBJECT_NAME":"GYEONGGISAT-1","OBJECT_ID":"2025-276DK","EPOCH":"2026-03-09T18:01:52.501440","MEAN_MOTION":15.19586974,"ECCENTRICITY":0.00014169,"INCLINATION":97.4305,"RA_OF_ASC_NODE":144.1952,"ARG_OF_PERICENTER":168.8338,"MEAN_ANOMALY":191.2928,"EPHEMERIS_TYPE":0,"CLASSIFICATION_TYPE":"U","NORAD_CAT_ID":66771,"ELEMENT_SET_NO":999,"REV_AT_EPOCH":1533,"BSTAR":0.00034251892,"MEAN_MOTION_DOT":7.224e-5,"MEAN_MOTION_DDOT":0}]
